NORAD_CAT_ID,OBJECT_NAME,OBJECT_TYPE,EPOCH,MEAN_MOTION,ECCENTRICITY,INCLINATION,RA_OF_ASC_NODE,ARG_OF_PERICENTER,MEAN_ANOMALY,BSTAR,MEAN_MOTION_DOT,MEAN_MOTION_DDOT,TLE_LINE0,TLE_LINE1,TLE_LINE2,SEMIMAJOR_AXIS,PERIOD,APOGEE,PERIGEE,DECAYED
50166.0,STARLINK-3305,PAYLOAD,2023-01-20 06:49:02,15.08816695,0.0002557,53.2179,346.5652,19.5205,340.5885,0.00024939,3.681e-05,0.0,0 STARLINK-3305,1 50166U 21125L   23020.28405983  .00003681  00000-0  24939-3 0  9993,2 50166  53.2179 346.5652 0002557  19.5205 340.5885 15.08816695 60748,6917.951999999999,95.439,541.586,538.048,0.0
50166.0,STARLINK-3305,PAYLOAD,2023-01-20 21:07:29,15.088448499999998,0.0002045999999999,53.2213,343.8854,12.9127,347.1917,-6.6669000000000005e-06,-3.94e-06,0.0,0 STARLINK-3305,1 50166U 21125L   23020.88020740 -.00000394  00000-0 -66669-5 0  9991,2 50166  53.2213 343.8854 0002046  12.9127 347.1917 15.08844850 60837,6917.866,95.437,541.146,538.315,0.0
50166.0,STARLINK-3305,PAYLOAD,2023-01-21 05:04:25,15.08848487,0.00022,53.2187,342.4016,28.7436,331.3677,9.5592e-05,1.234e-05,0.0,0 STARLINK-3305,1 50166U 21125L   23021.21140103  .00001234  00000-0  95592-4 0  9993,2 50166  53.2187 342.4016 0002200  28.7436 331.3677 15.08848487 60885,6917.854,95.437,541.241,538.198,0.0
50166.0,STARLINK-3305,PAYLOAD,2023-01-21 14:36:44,15.08841587,0.0002362,53.2196,340.6172,29.455,330.6575,0.00010636,1.405e-05,0.0,0 STARLINK-3305,1 50166U 21125L   23021.60884489  .00001405  00000-0  10636-3 0  9993,2 50166  53.2196 340.6172 0002362  29.4550 330.6575 15.08841587 60942,6917.876,95.437,541.375,538.107,0.0
50166.0,STARLINK-3305,PAYLOAD,2023-01-23 06:21:22,15.08844167,0.0002342,53.2194,333.1847,24.8796,335.2309,1.3808e-05,-6.9e-07,0.0,0 STARLINK-3305,1 50166U 21125L   23023.26484010 -.00000069  00000-0  13808-4 0  9994,2 50166  53.2194 333.1847 0002342  24.8796 335.2309 15.08844167 61196,6917.868,95.437,541.3530000000001,538.112,0.0
50166.0,STARLINK-3305,PAYLOAD,2023-01-24 06:12:09,15.08842174,0.0002325,53.2188,328.7208,34.64,325.4743,5.0937e-05,5.22e-06,0.0,0 STARLINK-3305,1 50166U 21125L   23024.25844473  .00000522  00000-0  50937-4 0  9994,2 50166  53.2188 328.7208 0002325  34.6400 325.4743 15.08842174 61348,6917.874,95.437,541.347,538.13,0.0
50166.0,STARLINK-3305,PAYLOAD,2023-01-25 02:52:10,15.08837617,0.0002189,53.2185,324.855,31.3731,328.7391,4.0958e-05,3.64e-06,0.0,0 STARLINK-3305,1 50166U 21125L   23025.11956847  .00000364  00000-0  40958-4 0  9995,2 50166  53.2185 324.8550 0002189  31.3731 328.7391 15.08837617 61476,6917.888000000001,95.438,541.2669999999999,538.238,0.0
50166.0,STARLINK-3305,PAYLOAD,2023-01-25 12:24:29,15.088300699999998,0.0002333,53.2186,323.0711,30.6469,329.4659,0.00016534,2.343e-05,0.0,0 STARLINK-3305,1 50166U 21125L   23025.51701348  .00002343  00000-0  16534-3 0  9994,2 50166  53.2186 323.0711 0002333  30.6469 329.4659 15.08830070 64618,6917.911,95.438,541.39,538.1619999999999,0.0
50166.0,STARLINK-3305,PAYLOAD,2023-01-26 02:42:59,15.08825907,0.0002021999999999,53.2199,320.3997,34.122,325.9902,1.8536e-05,7e-08,0.0,0 STARLINK-3305,1 50166U 21125L   23026.11318494  .00000007  00000-0  18536-4 0  9997,2 50166  53.2199 320.3997 0002022  34.1220 325.9902 15.08825907 61620,6917.923000000001,95.438,541.187,538.39,0.0
50166.0,STARLINK-3305,PAYLOAD,2023-01-26 23:22:58,15.08844305,0.0002288,53.2194,316.5319,34.9495,325.1647,0.00021241,3.094e-05,0.0,0 STARLINK-3305,1 50166U 21125L   23026.97428995  .00003094  00000-0  21241-3 0  9994,2 50166  53.2194 316.5319 0002288  34.9495 325.1647 15.08844305 61751,6917.866999999999,95.437,541.315,538.149,0.0
50166.0,STARLINK-3305,PAYLOAD,2023-01-27 05:44:31,15.08842741,0.0002287,53.2182,315.3422,34.0308,326.083,0.00019266,2.78e-05,0.0,0 STARLINK-3305,1 50166U 21125L   23027.23925283  .00002780  00000-0  19266-3 0  9991,2 50166  53.2182 315.3422 0002287  34.0308 326.0830 15.08842741 64875,6917.871999999999,95.437,541.319,538.155,0.0
50166.0,STARLINK-3305,PAYLOAD,2023-01-28 03:59:55,15.08828338,0.0002137,53.2176,311.1774,32.5341,327.5782,-0.00019088,-3.324e-05,0.0,0 STARLINK-3305,1 50166U 21125L   23028.16661509 -.00003324  00000-0 -19088-3 0  9991,2 50166  53.2176 311.1774 0002137  32.5341 327.5782 15.08828338 61938,6917.916,95.438,541.259,538.303,0.0
50166.0,STARLINK-3305,PAYLOAD,2023-01-28 18:18:23,15.08829344,0.000173,53.2178,308.4992,39.9081,320.2038,-0.00012979,-2.352e-05,0.0,0 STARLINK-3305,1 50166U 21125L   23028.76277626 -.00002352  00000-0 -12979-3 0  9992,2 50166  53.2178 308.4992 0001730  39.9081 320.2038 15.08829344 65106,6917.913,95.438,540.975,538.581,0.0
50166.0,STARLINK-3305,PAYLOAD,2023-01-29 03:50:42,15.08836861,0.0002171,53.2175,306.717,36.143,323.9709,3.186e-05,2.19e-06,0.0,0 STARLINK-3305,1 50166U 21125L   23029.16021557  .00000219  00000-0  31860-4 0  9996,2 50166  53.2175 306.7170 0002171  36.1430 323.9709 15.08836861 62080,6917.89,95.438,541.257,538.253,0.0
50166.0,STARLINK-3305,PAYLOAD,2023-01-29 18:09:11,15.08832235,0.0002208,53.2172,304.0411,36.4667,323.6475,0.00035143,5.308e-05,0.0,0 STARLINK-3305,1 50166U 21125L   23029.75638219  .00005308  00000-0  35143-3 0  9991,2 50166  53.2172 304.0411 0002208  36.4667 323.6475 15.08832235 65252,6917.904,95.438,541.297,538.242,0.0
50166.0,STARLINK-3305,PAYLOAD,2023-01-30 03:41:30,15.08834882,0.0002303,53.218,302.2577,35.0458,325.0685,0.00031066,4.659e-05,0.0,0 STARLINK-3305,1 50166U 21125L   23030.15382438  .00004659  00000-0  31066-3 0  9994,2 50166  53.2180 302.2577 0002303  35.0458 325.0685 15.08834882 62237,6917.896,95.438,541.354,538.168,0.0
50166.0,STARLINK-3305,PAYLOAD,2023-01-30 21:10:44,15.08850842,0.0002392,53.2179,298.9872,31.7393,328.3743,0.00038829,5.899e-05,0.0,0 STARLINK-3305,1 50166U 21125L   23030.88245813  .00005899  00000-0  38829-3 0  9990,2 50166  53.2179 298.9872 0002392  31.7393 328.3743 15.08850842 65422,6917.847,95.437,541.367,538.058,0.0
50166.0,STARLINK-3305,PAYLOAD,2023-01-31 00:21:30,15.08851984,0.0002361,53.2181,298.3924,32.3504,327.7633,0.00038185,5.796e-05,0.0,0 STARLINK-3305,1 50166U 21125L   23031.01493721  .00005796  00000-0  38185-3 0  9990,2 50166  53.2181 298.3924 0002361  32.3504 327.7633 15.08851984 62363,6917.844,95.437,541.342,538.075,0.0
50166.0,STARLINK-3305,PAYLOAD,2023-01-31 03:32:16,15.0885226,0.0002361,53.2181,297.7978,31.8894,328.2241,0.00035081,5.301e-05,0.0,0 STARLINK-3305,1 50166U 21125L   23031.14741645  .00005301  00000-0  35081-3 0  9999,2 50166  53.2181 297.7978 0002361  31.8894 328.2241 15.08852260 65464,6917.843,95.437,541.341,538.075,0.0
50166.0,STARLINK-3305,PAYLOAD,2023-01-31 17:50:44,15.0885489,0.0002397,53.218,295.1217,31.7809,328.3327,0.00028146,4.196e-05,0.0,0 STARLINK-3305,1 50166U 21125L   23031.74357203  .00004196  00000-0  28146-3 0  9993,2 50166  53.2180 295.1217 0002397  31.7809 328.3327 15.08854890 65552,6917.835,95.437,541.358,538.042,0.0
50166.0,STARLINK-3305,PAYLOAD,2023-02-01 03:23:03,15.08850173,0.0002356,53.2177,293.3371,33.9872,326.1271,0.00011521,1.546e-05,0.0,0 STARLINK-3305,1 50166U 21125L   23032.14101019  .00001546  00000-0  11521-3 0  9995,2 50166  53.2177 293.3371 0002356  33.9872 326.1271 15.08850173 62537,6917.849,95.437,541.344,538.084,0.0
50166.0,STARLINK-3305,PAYLOAD,2023-02-02 03:13:50,15.08846109,0.0002373,53.217,288.8777,36.4789,323.6365,2.2425e-05,6.9e-07,0.0,0 STARLINK-3305,1 50166U 21125L   23033.13460650  .00000069  00000-0  22425-4 0  9999,2 50166  53.2170 288.8777 0002373  36.4789 323.6365 15.08846109 65761,6917.862,95.437,541.368,538.085,0.0
50166.0,STARLINK-3305,PAYLOAD,2023-02-02 23:53:50,15.08840049,0.0002355,53.2164,285.0122,37.7617,322.354,-7.6384e-05,-1.504e-05,0.0,0 STARLINK-3305,1 50166U 21125L   23033.99572891 -.00001504  00000-0 -76384-4 0  9994,2 50166  53.2164 285.0122 0002355  37.7617 322.3540 15.08840049 62812,6917.88,95.438,541.374,538.116,0.0
50166.0,STARLINK-3305,PAYLOAD,2023-02-03 01:29:14,15.08841661,0.0002395,53.2166,284.7146,39.0362,321.0802,-7.4394e-05,-1.472e-05,0.0,0 STARLINK-3305,1 50166U 21125L   23034.06196822 -.00001472  00000-0 -74394-4 0  9992,2 50166  53.2166 284.7146 0002395  39.0362 321.0802 15.08841661 65903,6917.875,95.437,541.397,538.083,0.0
50166.0,STARLINK-3305,PAYLOAD,2023-02-03 17:23:05,15.08858792,0.0002254,53.2189,281.7394,36.5035,323.611,-0.00018051,-3.162e-05,0.0,0 STARLINK-3305,1 50166U 21125L   23034.72437004 -.00003162  00000-0 -18051-3 0  9990,2 50166  53.2189 281.7394 0002254  36.5035 323.6110 15.08858792 66008,6917.823,95.436,541.247,538.129,0.0
50166.0,STARLINK-3305,PAYLOAD,2023-02-04 20:24:38,15.0884337,0.0002223,53.2185,276.687,31.3381,328.7743,0.00013855,1.918e-05,0.0,0 STARLINK-3305,1 50166U 21125L   23035.85045039  .00001918  00000-0  13855-3 0  9990,2 50166  53.2185 276.6870 0002223  31.3381 328.7743 15.08843370 63099,6917.87,95.437,541.273,538.197,0.0
50166.0,STARLINK-3305,PAYLOAD,2023-02-05 01:10:48,15.08843975,0.0002227,53.2174,275.7949,32.7591,327.3539,0.00015392,2.163e-05,0.0,0 STARLINK-3305,1 50166U 21125L   23036.04917166  .00002163  00000-0  15392-3 0  9992,2 50166  53.2174 275.7949 0002227  32.7591 327.3539 15.08843975 66201,6917.868,95.437,541.274,538.193,0.0
50166.0,STARLINK-3305,PAYLOAD,2023-02-05 21:50:49,15.08834751,0.0002303,53.2174,271.9281,26.1886,333.9223,0.00011227,1.499e-05,0.0,0 STARLINK-3305,1 50166U 21125L   23036.91029785  .00001499  00000-0  11227-3 0  9993,2 50166  53.2174 271.9281 0002303  26.1886 333.9223 15.08834751 66336,6917.896,95.438,541.355,538.168,0.0
50166.0,STARLINK-3305,PAYLOAD,2023-02-06 01:01:36,15.08834399,0.0002287,53.2183,271.3342,28.5317,331.58,8.8706e-05,1.124e-05,0.0,0 STARLINK-3305,1 50166U 21125L   23037.04277857  .00001124  00000-0  88706-4 0  9995,2 50166  53.2183 271.3342 0002287  28.5317 331.5800 15.08834399 63277,6917.898,95.438,541.345,538.18,0.0
